HST                     
1 20580U 90037B   26175.96652655  .00007148  00000+0  22544-3 0  9998
2 20580  28.4728  27.4055 0001442 233.5980 126.4483 15.30829347789769
POLAR                   
1 23802U 96013A   26175.73936436  .00000126  00000+0  00000+0 0  9993
2 23802  79.8637 226.9636 6477909 208.8193  90.3423  1.29846085144951
SWAS                    
1 25560U 98071A   26176.49692757  .00002778  00000+0  17855-3 0  9996
2 25560  69.8945 206.0888 0008779 251.4522 108.5689 15.09662860498523
CXO                     
1 25867U 99040B   26177.31113606  .00000484  00000+0  00000+0 0  9998
2 25867  56.2784 116.4107 7818645 310.1913   0.3296  0.37800874 17352
XMM-NEWTON              
1 25989U 99066A   26177.32484747  .00000006  00000+0  00000+0 0  9999
2 25989  64.4359 282.8679 4671049  64.7288   0.1080  0.50127949 23049
TERRA                   
1 25994U 99068A   26176.59660736  .00000366  00000+0  83542-4 0  9995
2 25994  97.9452 225.8094 0002245 164.8951 355.0735 14.61109245410831
CLUSTER II-FM7 (SAMBA)  
1 26410U 00041A   26177.06472445  .00005882  00000+0  00000+0 0  9994
2 26410 149.9012  52.3742 9061812 269.6784 359.6419  0.44870397 20352
CLUSTER II-FM8 (TANGO)  
1 26464U 00045B   26172.94229412  .00004849  00000+0  00000+0 0  9995
2 26464 150.1352  52.7746 9062813 269.8657   2.6673  0.44420336 20332
ODIN                    
1 26702U 01007A   26176.08925060  .00262742  00000+0  14705-2 0  9998
2 26702  97.3797 217.5522 0006631 132.9735 227.2089 15.78592061390647
TIMED                   
1 26998U 01055B   26176.50506075  .00000930  00000+0  87953-4 0  9992
2 26998  74.0664 218.2705 0001542 324.4759  35.6323 14.95308595332069
CORIOLIS                
1 27640U 03001A   26176.51205401  .00000101  00000+0  67799-4 0  9996
2 27640  98.7126 183.2697 0013860 184.1206 175.9858 14.19946986215402
SORCE                   
1 27651U 03004A   26176.37477417  .00002184  00000+0  16687-3 0  9995
2 27651  39.9896 214.9630 0016291 112.2052 248.0472 15.03747558273132
MOST                    
1 27843U 03031D   26176.51809991  .00000075  00000+0  54650-4 0  9990
2 27843  98.7043 184.1278 0009008 223.5037 136.5431 14.21324130191899
SCISAT 1                
1 27858U 03036A   26176.39670483  .00000595  00000+0  80673-4 0  9990
2 27858  73.9288 155.0316 0008286 225.3717 134.6784 14.81455911232662
SWIFT                   
1 28485U 04047A   26176.51740907  .00062340  00000+0  50315-3 0  9998
2 28485  20.5513 120.6046 0001452  55.7807 304.2777 15.69083714188177
HINODE (SOLAR-B)        
1 29479U 06041A   26176.56556573  .00000683  00000+0  12570-3 0  9990
2 29479  98.0544 192.5946 0015956 260.7454  99.1947 14.68633435 56107
SHIJIAN-6 02A (SJ-6 02A)
1 29505U 06046A   26176.60070507  .00009438  00000+0  48032-3 0  9997
2 29505  97.6358 217.7310 0004698 106.2197 253.9553 15.17032624 73547
SHIJIAN-6 02B (SJ-6 02B)
1 29506U 06046B   26176.61051550  .00001332  00000+0  10779-3 0  9998
2 29506  97.7163 205.6175 0015414  36.6612 323.5664 15.01395629 72001
FGRST (GLAST)           
1 33053U 08029A   26176.28235954  .00002593  00000+0  90541-4 0  9994
2 33053  25.5803 148.2689 0008378  63.4477 296.6919 15.23976818997078
SDO                     
1 36395U 10005A   26176.31816297 -.00000093  00000+0  00000+0 0  9992
2 36395  34.6685  86.2181 0001679  50.5603 149.0403  1.00270663 60145
CRYOSAT 2               
1 36508U 10013A   26176.55868273  .00000125  00000+0  30386-4 0  9994
2 36508  92.0359 279.3364 0002127  93.8946 266.2505 14.51901846859295
X-SAT                   
1 37389U 11015C   26176.57995520 -.00000036  00000+0  21613-5 0  9999
2 37389  98.3511 153.2033 0013377 323.3922  36.6343 14.25207741788877
GCOM-W1 (SHIZUKU)       
1 38337U 12025A   26176.42017846  .00000421  00000+0  10344-3 0  9999
2 38337  98.2022 116.8512 0001663  70.2986  42.2471 14.57131515750231
NUSTAR                  
1 38358U 12031A   26176.66670139  .00007706  00000+0  42116-3 0  9990
2 38358   6.0274 330.5340 0008576 237.7173 315.8504 15.08877449  1305
NEOSSAT                 
1 39089U 13009D   26176.50220597  .00000149  00000+0  66169-4 0  9999
2 39089  98.4180 356.3372 0010243 216.6763 143.3723 14.35829183697932
BRITE-AUSTRIA           
1 39091U 13009F   26176.49669573  .00000165  00000+0  70556-4 0  9994
2 39091  98.3998 355.7268 0009543 209.3907 150.6744 14.36545099698249
IRIS                    
1 39197U 13033A   26176.51512996  .00001012  00000+0  12197-3 0  9995
2 39197  97.9327  15.7660 0023059 293.2155  66.6632 14.85900369701618
HISAKI (SPRINT-A)       
1 39253U 13049A   26176.45134775  .00000115  00000+0  70400-4 0  9998
2 39253  29.7171 177.9942 0136857  83.8523 277.7622 13.55545427632543
CASSIOPE                
1 39265U 13055A   26176.49181227  .00057416 -16714-6  62274-3 0  9998
2 39265  80.9142  56.6316 0289725  34.5395 327.4284 15.25944768668933
STSAT-3                 
1 39422U 13066G   26176.63567348  .00003066  00000+0  23336-3 0  9994
2 39422  97.6214 146.3878 0010512  21.7972 338.3699 15.02798565685474
